STARLINK-35753          
1 66232U 25244AC  25320.83335647 -.00140334  00000+0 -25543-2 0  9994
2 66232  53.1599  38.2757 0001421  60.4381 243.6690 15.49378748  4049
STARLINK-35626          
1 66233U 25244AD  25320.83335647 -.00142597  00000+0 -25961-2 0  9992
2 66233  53.1598  38.2718 0001504  62.5737 243.4492 15.49381139  4211
STARLINK-35537          
1 66234U 25245A   25320.83335647 -.01947478  00000+0 -20371-1 0  9995
2 66234  53.1591  92.4100 0001276  56.8581  69.9411 15.66940418  3942
STARLINK-35541          
1 66235U 25245B   25320.83335647 -.01950429  00000+0 -20404-1 0  9993
2 66235  53.1593  92.4057 0001270  56.9532  71.7633 15.66941865  3895
STARLINK-35454          
1 66236U 25245C   25320.83335647 -.01935057  00000+0 -20231-1 0  9992
2 66236  53.1592  92.4014 0001400  58.7355  71.9025 15.66930816  3774
STARLINK-35557          
1 66237U 25245D   25320.83335647 -.01937731  00000+0 -20261-1 0  9997
2 66237  53.1589  92.3972 0001389  53.6418  78.9111 15.66932903  3944
STARLINK-35556          
1 66238U 25245E   25320.83335647 -.01945538  00000+0 -20348-1 0  9998
2 66238  53.1589  92.3927 0001319  60.7678  73.6998 15.66939539  3942
STARLINK-35554          
1 66239U 25245F   25320.83335647 -.01939525  00000+0 -20280-1 0  9993
2 66239  53.1589  92.3890 0001372  55.4521  80.9327 15.66935244  3787
STARLINK-35546          
1 66240U 25245G   25320.83335647 -.01949557  00000+0 -20397-1 0  9990
2 66240  53.1590  92.3848 0001248  57.2552  81.0492 15.66939177  3942
STARLINK-35497          
1 66241U 25245H   25320.83335647 -.01954152  00000+0 -20447-1 0  9994
2 66241  53.1587  92.3814 0001240  60.7106  79.5075 15.66943740  3892
STARLINK-35480          
1 66242U 25245J   25320.83335647 -.01937616  00000+0 -20259-1 0  9992
2 66242  53.1589  92.3698 0001320  62.1095  83.8614 15.66933766  3947
STARLINK-35495          
1 66243U 25245K   25320.83335647 -.01948285  00000+0 -20381-1 0  9993
2 66243  53.1588  92.3777 0001230  55.7453  86.3902 15.66939714  3948
STARLINK-35517          
1 66244U 25245L   25320.58336806 -.01990358  00000+0 -19958-1 0  9990
2 66244  53.1593  93.6000 0001219  71.9718 100.5898 15.68039199  3694
STARLINK-35503          
1 66245U 25245M   25320.83335647 -.01944185  00000+0 -20334-1 0  9998
2 66245  53.1590  92.3642 0001329  58.6595  89.2283 15.66936913  3898
STARLINK-35434          
1 66246U 25245N   25320.83335647 -.01934472  00000+0 -20226-1 0  9997
2 66246  53.1587  92.3596 0001377  58.1096  91.6999 15.66928457  3735
STARLINK-35481          
1 66247U 25245P   25320.83335647 -.01940823  00000+0 -20295-1 0  9991
2 66247  53.1587  92.3564 0001313  57.2091  94.5106 15.66935794  3943
STARLINK-35416          
1 66248U 25245Q   25320.83335647 -.01939396  00000+0 -20280-1 0  9999
2 66248  53.1591  92.3530 0001349  56.0284  97.6097 15.66933851  3891
STARLINK-35304          
1 66249U 25245R   25320.83335647 -.01957200  00000+0 -20482-1 0  9998
2 66249  53.1589  92.3406 0001204  56.5585 102.8258 15.66946382  3734
STARLINK-35338          
1 66250U 25245S   25320.83335647 -.01936770  00000+0 -20250-1 0  9992
2 66250  53.1588  92.3487 0001342  54.5272 101.0280 15.66932144  3847
STARLINK-35485          
1 66251U 25245T   25320.83335647 -.01939486  00000+0 -20281-1 0  9994
2 66251  53.1589  92.3446 0001215  55.1706 102.2986 15.66934913  3732
STARLINK-35483          
1 66252U 25245U   25320.83335647 -.01933355  00000+0 -20212-1 0  9998
2 66252  53.1586  92.3359 0001237  53.0855 108.2185 15.66930690  3891
STARLINK-35486          
1 66253U 25245V   25320.83335647 -.01942646  00000+0 -20317-1 0  9998
2 66253  53.1588  92.3325 0001319  60.7427 102.4806 15.66935621  3736
STARLINK-35488          
1 66254U 25245W   25320.83335647 -.01944690  00000+0 -20339-1 0  9994
2 66254  53.1588  92.3277 0001297  60.8228 104.3140 15.66938841  3940
STARLINK-35616          
1 66255U 25245X   25320.83335647 -.01936628  00000+0 -20247-1 0  9995
2 66255  53.1591  92.3241 0001298  61.7345 105.3190 15.66934279  3944
STARLINK-35619          
1 66256U 25245Y   25320.83335647 -.01958423  00000+0 -20498-1 0  9991
2 66256  53.1590  92.3121 0001138  60.5420 112.2644 15.66944931  3942
STARLINK-35615          
1 66257U 25245Z   25320.83335647 -.01943197  00000+0 -20323-1 0  9991
2 66257  53.1591  92.3159 0001220  59.7050 111.1839 15.66936973  3947
STARLINK-34650          
1 66258U 25245AA  25320.83335647 -.01949572  00000+0 -20396-1 0  9995
2 66258  53.1592  92.3199 0001205  63.1784 105.7934 15.66940669  3941
STARLINK-35529          
1 66259U 25245AB  25320.83335647 -.01940047  00000+0 -20288-1 0  9994
2 66259  53.1591  92.3037 0001223  61.8138 114.8279 15.66934080  3943
STARLINK-35420          
1 66260U 25245AC  25320.83335647 -.01938826  00000+0 -20275-1 0  9994
2 66260  53.1591  92.3082 0001206  67.9257 106.8003 15.66933007  3949
STARLINK-35536          
1 66261U 25245AD  25320.83335647 -.01939238  00000+0 -20278-1 0  9996
2 66261  53.1590  92.3000 0001216  56.9094 121.6460 15.66934807  3948
STARLINK-35487          
1 66262U 25245AE  25320.83335647 -.01941697  00000+0 -20307-1 0  9992
2 66262  53.1591  92.2958 0001222  57.0130 123.4615 15.66935125  3891
STARLINK-35801          
1 66265U 25247A   25320.39565247 -.00910532  00000+0 -11145-1 0  9992
2 66265  53.1600   2.2460 0000999  91.0310 269.0819 15.62248090  3620
STARLINK-35056          
1 66266U 25247B   25319.50088506  .00298104  00000+0  26467-2 0  9998
2 66266  53.1587   6.6172 0006851 284.1106  75.9150 15.67074274  3486
STARLINK-35550          
1 66267U 25247C   25319.56056512  .00321536  00000+0  21192-2 0  9993
2 66267  53.1532   5.5298 0002027  98.0340 262.0910 15.74165016  3506
STARLINK-35069          
1 66268U 25247D   25319.62717606  .06733242  00000+0  46244-1 0  9990
2 66268  53.1586   5.9827 0014575 280.7757  79.1620 15.69581187  3501
STARLINK-34910          
1 66269U 25247E   25320.19567305  .11482478  00000+0  53893-1 0  9990
2 66269  53.1566   2.3817 0011244 336.4190  23.6315 15.77620633  3605
STARLINK-35757          
1 66270U 25247F   25319.43541724  .01906918  00000+0  13668-1 0  9999
2 66270  53.1590   6.9202 0016584 281.0788  78.8365 15.70125545  3525
STARLINK-35745          
1 66271U 25247G   25320.07379694 -.00807917  00000+0 -93914-2 0  9990
2 66271  53.1601   3.7946 0002899  20.0398 340.0731 15.63646480  3621
STARLINK-35741          
1 66272U 25247H   25320.32891193 -.01162941  00000+0 -13983-1 0  9991
2 66272  53.1605   2.5391 0004281 186.4791 173.6169 15.62879857  3662
STARLINK-35730          
1 66273U 25247J   25320.64697405  .00478685  00000+0  42504-2 0  9991
2 66273  53.1610   0.9673 0015712 263.2083  96.7146 15.66406098  3716
STARLINK-35760          
1 66274U 25247K   25320.64829771 -.00604452  00000+0 -75187-2 0  9993
2 66274  53.1597   0.9749 0001442  44.3363 315.7767 15.61290455  3669
STARLINK-35752          
1 66275U 25247L   25320.58393638 -.00835558  00000+0 -10475-1 0  9996
2 66275  53.1624   1.2838 0001625  37.5220 322.5907 15.61427554  3656
STARLINK-35742          
1 66276U 25247M   25320.51929371 -.01818468  00000+0 -22451-1 0  9998
2 66276  53.1609   1.5912 0010321 355.0298   5.0612 15.62454058  3692
STARLINK-35708          
1 66277U 25247N   25320.32349671 -.00984181  00000+0 -83087-2 0  9995
2 66277  53.1617   2.5045 0031241 257.5104 102.2419 15.71022093  3668
STARLINK-35713          
1 66278U 25247P   25319.00003472 -.01944816  00000+0 -19583-1 0  9996
2 66278  53.1593   9.0224 0001309  66.4418  11.9160 15.67861574  3489
STARLINK-35724          
1 66279U 25247Q   25320.00679138 -.00810947  00000+0 -93435-2 0  9992
2 66279  53.1607   4.0811 0003555 339.4171  20.6701 15.63871677  3565
STARLINK-35726          
1 66280U 25247R   25320.58359372 -.00840678  00000+0 -10533-1 0  9993
2 66280  53.1604   1.2815 0001988  66.0526 294.0697 15.61452716  3650
STARLINK-35727          
1 66281U 25247S   25320.45284817  .00000941  00000+0  14505-4 0  9996
2 66281  53.1608   1.8864 0014446 255.9307 104.0104 15.65999355  3634
STARLINK-35776          
1 66282U 25247T   25320.64558244 -.00869356  00000+0 -11065-1 0  9996
2 66282  53.1601   0.9572 0001503  73.4402 286.6777 15.61129906  3662
STARLINK-35774          
1 66283U 25247U   25320.38916153 -.00866287  00000+0 -10420-1 0  9999
2 66283  53.1599   2.1996 0001465 162.7084 197.3981 15.62568558  3620
STARLINK-35830          
1 66284U 25247V   25319.10860218  .00463810  00000+0  29156-2 0  9998
2 66284  53.1581   8.4305 0002972 107.0554 253.0792 15.74851715  3424
STARLINK-35819          
1 66285U 25247W   25319.00003472  .00360978  00000+0  26904-2 0  9998
2 66285  53.1587   8.9898 0002294  54.5952  39.2011 15.71151926  3116
STARLINK-35783          
1 66286U 25247X   25320.19654757  .05040915  00000+0  38165-1 0  9991
2 66286  53.1610   3.1316 0017103 304.8165  55.1243 15.67687763  3592
STARLINK-34884          
1 66287U 25247Y   25319.00003472 -.01946850  00000+0 -19604-1 0  9990
2 66287  53.1590   8.9895 0001232  73.9056  19.7829 15.67865783  3433
STARLINK-34896          
1 66288U 25247Z   25318.85572684  .00270283  00000+0  22073-2 0  9991
2 66288  53.1580   9.6966 0013340  64.3745 295.8649 15.69131785  3383
STARLINK-35802          
1 66289U 25247AA  25319.49307057 -.00765737  00000+0 -80088-2 0  9998
2 66289  53.1583   6.5625 0001981  78.6278 281.4961 15.66157224  3484
STARLINK-35799          
1 66290U 25247AB  25320.19489736  .00348340  00000+0  32346-2 0  9993
2 66290  53.1613   3.1194 0008526 264.8273  95.1770 15.65786591  3640
STARLINK-35800          
1 66291U 25247AC  25319.36158876  .00350313  00000+0  24191-2 0  9991
2 66291  53.1577   7.1629 0001455 187.7756 172.3241 15.72990801  3516
STARLINK-35798          
1 66292U 25247AD  25319.74780117 -.00743407  00000+0 -80795-2 0  9997
2 66292  53.1583   5.3076 0001118  52.9801 307.1318 15.65144845  3525
